NORAD_CAT_ID,OBJECT_NAME,OBJECT_TYPE,EPOCH,MEAN_MOTION,ECCENTRICITY,INCLINATION,RA_OF_ASC_NODE,ARG_OF_PERICENTER,MEAN_ANOMALY,BSTAR,MEAN_MOTION_DOT,MEAN_MOTION_DDOT,TLE_LINE0,TLE_LINE1,TLE_LINE2,SEMIMAJOR_AXIS,PERIOD,APOGEE,PERIGEE,DECAYED
49173.0,STARLINK-3045,PAYLOAD,2022-10-20 00:40:15,14.98335452,0.0002838,70.0002,152.5073,253.4559,106.6289,9.835e-05,1.081e-05,0.0,0 STARLINK-3045,1 49173U 21082AV  22293.02795490  .00001081  00000-0  98350-4 0  9990,2 49173  70.0002 152.5073 0002838 253.4559 106.6289 14.98335452 61230,6950.176,96.107,574.013,570.069,0.0
49173.0,STARLINK-3045,PAYLOAD,2022-10-20 11:53:11,14.98339424,0.0002726999999999,69.9992,151.3287,259.66200000000003,100.4231,-0.00027122,-3.328e-05,0.0,0 STARLINK-3045,1 49173U 21082AV  22293.49527182 -.00003328  00000-0 -27122-3 0  9998,2 49173  69.9992 151.3287 0002727 259.6620 100.4231 14.98339424 61303,6950.1640000000025,96.106,573.924,570.133,0.0
49173.0,STARLINK-3045,PAYLOAD,2022-10-20 21:30:00,14.98333855,0.0002892,69.9993,150.3191,255.5793,104.5046,9.1796e-05,1.003e-05,0.0,0 STARLINK-3045,1 49173U 21082AV  22293.89583597  .00001003  00000-0  91796-4 0  9999,2 49173  69.9993 150.3191 0002892 255.5793 104.5046 14.98333855 61363,6950.181,96.107,574.056,570.036,0.0
49173.0,STARLINK-3045,PAYLOAD,2022-10-21 00:42:16,14.98334918,0.0002894,69.9993,149.9824,255.6303,104.4535,0.00011233,1.248e-05,0.0,0 STARLINK-3045,1 49173U 21082AV  22294.02935535  .00001248  00000-0  11233-3 0  9996,2 49173  69.9993 149.9824 0002894 255.6303 104.4535 14.98334918 61385,6950.178000000001,96.107,574.054,570.031,0.0
49173.0,STARLINK-3045,PAYLOAD,2022-10-21 18:19:44,14.98339281,0.0002904999999999,69.9991,148.1307,255.6359,104.4477,0.00014904,1.686e-05,0.0,0 STARLINK-3045,1 49173U 21082AV  22294.76371129  .00001686  00000-0  14904-3 0  9994,2 49173  69.9991 148.1307 0002905 255.6359 104.4477 14.98339281 61499,6950.1640000000025,96.106,574.048,570.01,0.0
49173.0,STARLINK-3045,PAYLOAD,2022-10-22 00:44:16,14.98341026,0.0002913,69.9991,147.4574,254.471,105.6128,0.00019566,2.243e-05,0.0,0 STARLINK-3045,1 49173U 21082AV  22295.03074974  .00002243  00000-0  19566-3 0  9992,2 49173  69.9991 147.4574 0002913 254.4710 105.6128 14.98341026 61535,6950.159000000002,96.106,574.048,569.999,0.0
49173.0,STARLINK-3045,PAYLOAD,2022-10-22 10:21:05,14.98329248,0.000296,69.9989,146.4475,254.5416,105.5416,0.00011458,1.274e-05,0.0,0 STARLINK-3045,1 49173U 21082AV  22295.43131585  .00001274  00000-0  11458-3 0  9993,2 49173  69.9989 146.4475 0002960 254.5416 105.5416 14.98329248 61594,6950.195,96.107,574.117,570.003,0.0
49173.0,STARLINK-3045,PAYLOAD,2022-10-22 11:57:13,14.98328277,0.0002968,69.9993,146.2793,254.9541,105.129,2.7053e-06,-6.1e-07,0.0,0 STARLINK-3045,1 49173U 21082AV  22295.49807489 -.00000061  00000-0  27053-5 0  9996,2 49173  69.9993 146.2793 0002968 254.9541 105.1290 14.98328277 61600,6950.198,96.107,574.126,570.0,0.0
49173.0,STARLINK-3045,PAYLOAD,2022-10-22 19:57:53,14.983313399999998,0.0002983,69.9992,145.4373,255.645,104.4378,7.2786e-05,7.76e-06,0.0,0 STARLINK-3045,1 49173U 21082AV  22295.83187429  .00000776  00000-0  72786-4 0  9993,2 49173  69.9992 145.4373 0002983 255.6450 104.4378 14.98331340 61657,6950.189,96.107,574.127,569.981,0.0
49173.0,STARLINK-3045,PAYLOAD,2022-10-23 10:23:07,14.98300911,0.0003052,69.9987,143.923,269.5911,90.4899,-0.00060175,-7.26e-05,0.0,0 STARLINK-3045,1 49173U 21082AV  22296.43272994 -.00007260  00000-0 -60175-3 0  9997,2 49173  69.9987 143.9230 0003052 269.5911  90.4899 14.98300911 61742,6950.283,96.109,574.269,570.0269999999998,0.0
49173.0,STARLINK-3045,PAYLOAD,2022-10-23 11:59:16,14.98303161,0.0003005,69.9982,143.7544,265.3173,94.7643,-0.00040505,-4.919e-05,0.0,0 STARLINK-3045,1 49173U 21082AV  22296.49949378 -.00004919  00000-0 -40505-3 0  9993,2 49173  69.9982 143.7544 0003005 265.3173  94.7643 14.98303161 61750,6950.276,96.109,574.229,570.052,0.0
49173.0,STARLINK-3045,PAYLOAD,2022-10-23 18:23:47,14.98324331,0.0002915,69.9986,143.0805,256.4516,103.6319,-2.0537e-05,-3.38e-06,0.0,0 STARLINK-3045,1 49173U 21082AV  22296.76652562 -.00000338  00000-0 -20537-4 0  9994,2 49173  69.9986 143.0805 0002915 256.4516 103.6319 14.98324331 61794,6950.21,96.107,574.101,570.049,0.0
49173.0,STARLINK-3045,PAYLOAD,2022-10-24 12:01:16,14.98335151,0.0002798,69.9976,141.2286,255.8005,104.2843,-7.649e-05,-1.006e-05,0.0,0 STARLINK-3045,1 49173U 21082AV  22297.50088453 -.00001006  00000-0 -76490-4 0  9991,2 49173  69.9976 141.2286 0002798 255.8005 104.2843 14.98335151 61905,6950.177,96.107,573.987,570.097,0.0
49173.0,STARLINK-3045,PAYLOAD,2022-10-24 20:01:57,14.98324718,0.000286,69.9976,140.3869,256.1107,103.9734,0.00014296,1.613e-05,0.0,0 STARLINK-3045,1 49173U 21082AV  22297.83468938  .00001613  00000-0  14296-3 0  9994,2 49173  69.9976 140.3869 0002860 256.1107 103.9734 14.98324718 61956,6950.209,96.107,574.062,570.086,0.0
49173.0,STARLINK-3045,PAYLOAD,2022-10-25 08:51:01,14.98324327,0.0002691,69.9977,139.0404,251.3795,108.7072,0.00019982,2.292e-05,0.0,0 STARLINK-3045,1 49173U 21082AV  22298.36877090  .00002292  00000-0  19982-3 0  9997,2 49173  69.9977 139.0404 0002691 251.3795 108.7072 14.98324327 62033,6950.21,96.107,573.946,570.205,0.0
49173.0,STARLINK-3045,PAYLOAD,2022-10-25 18:27:52,14.98295353,0.0002652,69.9982,138.0319,256.0764,104.01,0.00013638,1.533e-05,0.0,0 STARLINK-3045,1 49173U 21082AV  22298.76935750  .00001533  00000-0  13638-3 0  9998,2 49173  69.9982 138.0319 0002652 256.0764 104.0100 14.98295353 62091,6950.3,96.109,574.008,570.322,0.0
49173.0,STARLINK-3045,PAYLOAD,2022-10-25 20:04:00,14.982927800000002,0.0002631,69.9979,137.8626,256.9545,103.132,9.4331e-05,1.032e-05,0.0,0 STARLINK-3045,1 49173U 21082AV  22298.83612200  .00001032  00000-0  94331-4 0  9992,2 49173  69.9979 137.8626 0002631 256.9545 103.1320 14.98292780 62105,6950.308000000001,96.109,574.002,570.344,0.0
49173.0,STARLINK-3045,PAYLOAD,2022-10-25 23:16:15,14.98318012,0.0002712,69.9979,137.5255,256.0467,104.0391,0.00036596,4.275e-05,0.0,0 STARLINK-3045,1 49173U 21082AV  22298.96962294  .00004275  00000-0  36596-3 0  9997,2 49173  69.9979 137.5255 0002712 256.0467 104.0391 14.98318012 62121,6950.23,96.108,573.98,570.21,0.0
49173.0,STARLINK-3045,PAYLOAD,2022-10-26 07:16:55,14.98330429,0.0002751999999999,69.9977,136.6838,257.5619,102.5232,0.00013417,1.508e-05,0.0,0 STARLINK-3045,1 49173U 21082AV  22299.30342005  .00001508  00000-0  13417-3 0  9991,2 49173  69.9977 136.6838 0002752 257.5619 102.5232 14.98330429 62173,6950.191999999999,96.107,573.969,570.144,0.0
49173.0,STARLINK-3045,PAYLOAD,2022-10-26 20:05:59,14.98333518,0.0002556,69.9989,135.3372,243.8645,116.2252,0.00019682,2.256e-05,0.0,0 STARLINK-3045,1 49173U 21082AV  22299.83749896  .00002256  00000-0  19682-3 0  9999,2 49173  69.9989 135.3372 0002556 243.8645 116.2252 14.98333518 62259,6950.182,96.107,573.823,570.271,0.0
49173.0,STARLINK-3045,PAYLOAD,2022-10-26 23:18:16,14.98334231,0.0002419,69.9995,135.0005,258.9859,101.1028,0.00022531,2.597e-05,0.0,0 STARLINK-3045,1 49173U 21082AV  22299.97101977  .00002597  00000-0  22531-3 0  9991,2 49173  69.9995 135.0005 0002419 258.9859 101.1028 14.98334231 62277,6950.18,96.107,573.726,570.364,0.0
49173.0,STARLINK-3045,PAYLOAD,2022-10-27 20:08:00,14.98331366,0.0002542,69.9996,132.8125,250.6476,109.4409,0.00047814,5.617e-05,0.0,0 STARLINK-3045,1 49173U 21082AV  22300.83889677  .00005617  00000-0  47814-3 0  9996,2 49173  69.9996 132.8125 0002542 250.6476 109.4409 14.98331366 62402,6950.189,96.107,573.82,570.2869999999998,0.0
49173.0,STARLINK-3045,PAYLOAD,2022-10-27 21:44:07,14.98360148,0.0002811,70.0005,132.644,265.9069,94.1769,-0.00039147,-4.764e-05,0.0,0 STARLINK-3045,1 49173U 21082AV  22300.90564411 -.00004764  00000-0 -39147-3 0  9994,2 49173  70.0005 132.6440 0002811 265.9069  94.1769 14.98360148 62410,6950.1,96.105,573.918,570.011,0.0
49173.0,STARLINK-3045,PAYLOAD,2022-10-27 23:20:15,14.9835984,0.0002808,70.0005,132.4756,265.8913,94.1925,-0.00036043,-4.394e-05,0.0,0 STARLINK-3045,1 49173U 21082AV  22300.97240332 -.00004394  00000-0 -36043-3 0  9995,2 49173  70.0005 132.4756 0002808 265.8913  94.1925 14.98359840 62423,6950.101,96.105,573.9169999999998,570.014,0.0
49173.0,STARLINK-3045,PAYLOAD,2022-10-28 16:57:44,14.98350128,0.000279,70.0007,130.624,262.4762,97.608,0.00025539,2.957e-05,0.0,0 STARLINK-3045,1 49173U 21082AV  22301.70676298  .00002957  00000-0  25539-3 0  9990,2 49173  70.0007 130.6240 0002790 262.4762  97.6080 14.98350128 62530,6950.130999999999,96.106,573.935,570.057,0.0
49173.0,STARLINK-3045,PAYLOAD,2022-10-29 07:22:56,14.98353842,0.0002791,70.0007,129.1093,262.1438,97.9405,0.00024763,2.865e-05,0.0,0 STARLINK-3045,1 49173U 21082AV  22302.30759416  .00002865  00000-0  24763-3 0  9997,2 49173  70.0007 129.1093 0002791 262.1438  97.9405 14.98353842 62627,6950.119000000002,96.105,573.924,570.044,0.0
49173.0,STARLINK-3045,PAYLOAD,2022-10-29 20:12:00,14.98341431,0.0002819999999999,70.0005,127.7625,261.7698,98.3141,8.4018e-06,7e-08,0.0,0 STARLINK-3045,1 49173U 21082AV  22302.84167617  .00000007  00000-0  84018-5 0  9999,2 49173  70.0005 127.7625 0002820 261.7698  98.3141 14.98341431 62708,6950.158,96.106,573.982,570.063,0.0
49173.0,STARLINK-3045,PAYLOAD,2022-10-30 10:37:12,14.98342576,0.0002826,70.0005,126.2477,261.6624,98.4214,3.87e-05,3.69e-06,0.0,0 STARLINK-3045,1 49173U 21082AV  22303.44251157  .00000369  00000-0  38700-4 0  9996,2 49173  70.0005 126.2477 0002826 261.6624  98.4214 14.98342576 62793,6950.154,96.106,573.9830000000002,570.055,0.0
49173.0,STARLINK-3045,PAYLOAD,2022-10-30 18:37:53,14.98342662,0.0002827,70.0005,125.406,261.7223,98.3616,4.9182e-05,4.94e-06,0.0,0 STARLINK-3045,1 49173U 21082AV  22303.77630944  .00000494  00000-0  49182-4 0  9992,2 49173  70.0005 125.4060 0002827 261.7223  98.3616 14.98342662 62846,6950.154,96.106,573.984,570.054,0.0
